ZK-1A R/B               
1 67002U 25292K   25361.95465944  .00172912  10282-4  78455-3 0  9999
2 67002  97.7196  76.0015 0202710 309.6848  48.6682 15.59491294  2763
STARLINK-35660          
1 67003U 25293A   25362.16668980 -.01618878  00000+0 -16959-1 0  9990
2 67003  69.9991 279.3652 0003409 267.6077 339.1264 15.67196557  2648
STARLINK-35913          
1 67004U 25293B   25362.16668980 -.01616911  00000+0 -16944-1 0  9991
2 67004  69.9992 279.3627 0003377 267.6045 341.1987 15.67184486  2644
STARLINK-36148          
1 67005U 25293C   25362.16668980 -.01615847  00000+0 -16941-1 0  9996
2 67005  69.9992 279.3606 0003441 268.2848 342.6400 15.67169745  2649
STARLINK-36156          
1 67006U 25293D   25362.16668980 -.01615965  00000+0 -16976-1 0  9996
2 67006  69.9992 279.3549 0003584 269.2064 346.2877 15.67120299  2644
STARLINK-36123          
1 67007U 25293E   25362.16668980 -.01619807  00000+0 -17008-1 0  9993
2 67007  69.9993 279.3573 0003477 267.8748 345.4372 15.67140585  2648
STARLINK-36163          
1 67008U 25293F   25362.16668980 -.01611754  00000+0 -16957-1 0  9999
2 67008  69.9992 279.3519 0003445 268.2646 349.7195 15.67077458  2643
STARLINK-36118          
1 67009U 25293G   25362.16668980 -.01622971  00000+0 -17099-1 0  9991
2 67009  69.9993 279.3495 0003664 268.7620 351.4765 15.67061488  2580
STARLINK-36189          
1 67010U 25293H   25362.16668980 -.01618628  00000+0 -17072-1 0  9998
2 67010  69.9993 279.3445 0003437 266.5859 357.9324 15.67028979  2642
STARLINK-36167          
1 67011U 25293J   25362.16668980 -.01613128  00000+0 -16992-1 0  9999
2 67011  69.9994 279.3459 0003466 267.3143 354.9348 15.67049400  2584
STARLINK-36175          
1 67012U 25293K   25362.16668980 -.01617583  00000+0 -17067-1 0  9993
2 67012  69.9994 279.3409 0003524 267.8792 358.7086 15.67017958  2584
STARLINK-35856          
1 67013U 25293L   25362.16668980 -.01619589  00000+0 -17107-1 0  9997
2 67013  69.9994 279.3379 0003487 268.5285   0.3152 15.66994990  2587
