CCSDS_OMM_VERS = 2.0
CREATION_DATE  = 
ORIGINATOR     = 

OBJECT_NAME    = ZK-1A R/B
OBJECT_ID      = 2025-292K
CENTER_NAME    = EARTH
REF_FRAME      = TEME
TIME_SYSTEM    = UTC
MEAN_ELEMENT_THEORY = SGP/SGP4

EPOCH          = 2025-12-27T22:54:42.575616
MEAN_MOTION    = 15.59491294
ECCENTRICITY   = .020271
INCLINATION    = 97.7196
RA_OF_ASC_NODE = 76.0015
ARG_OF_PERICENTER = 309.6848
MEAN_ANOMALY   = 48.6682

EPHEMERIS_TYPE = 0
CLASSIFICATION_TYPE = U
NORAD_CAT_ID   = 67002
ELEMENT_SET_NO = 999
REV_AT_EPOCH   = 276
BSTAR          = .78455E-3
MEAN_MOTION_DOT = .172912E-2
MEAN_MOTION_DDOT = .10282E-4

CCSDS_OMM_VERS = 2.0
CREATION_DATE  = 
ORIGINATOR     = 

OBJECT_NAME    = STARLINK-35660
OBJECT_ID      = 2025-293A
CENTER_NAME    = EARTH
REF_FRAME      = TEME
TIME_SYSTEM    = UTC
MEAN_ELEMENT_THEORY = SGP/SGP4

EPOCH          = 2025-12-28T04:00:01.998720
MEAN_MOTION    = 15.67196557
ECCENTRICITY   = .0003409
INCLINATION    = 69.9991
RA_OF_ASC_NODE = 279.3652
ARG_OF_PERICENTER = 267.6077
MEAN_ANOMALY   = 339.1264

EPHEMERIS_TYPE = 0
CLASSIFICATION_TYPE = U
NORAD_CAT_ID   = 67003
ELEMENT_SET_NO = 999
REV_AT_EPOCH   = 264
BSTAR          = -.16959E-1
MEAN_MOTION_DOT = -.1618878E-1
MEAN_MOTION_DDOT = 0

CCSDS_OMM_VERS = 2.0
CREATION_DATE  = 
ORIGINATOR     = 

OBJECT_NAME    = STARLINK-35913
OBJECT_ID      = 2025-293B
CENTER_NAME    = EARTH
REF_FRAME      = TEME
TIME_SYSTEM    = UTC
MEAN_ELEMENT_THEORY = SGP/SGP4

EPOCH          = 2025-12-28T04:00:01.998720
MEAN_MOTION    = 15.67184486
ECCENTRICITY   = .0003377
INCLINATION    = 69.9992
RA_OF_ASC_NODE = 279.3627
ARG_OF_PERICENTER = 267.6045
MEAN_ANOMALY   = 341.1987

EPHEMERIS_TYPE = 0
CLASSIFICATION_TYPE = U
NORAD_CAT_ID   = 67004
ELEMENT_SET_NO = 999
REV_AT_EPOCH   = 264
BSTAR          = -.16944E-1
MEAN_MOTION_DOT = -.1616911E-1
MEAN_MOTION_DDOT = 0

CCSDS_OMM_VERS = 2.0
CREATION_DATE  = 
ORIGINATOR     = 

OBJECT_NAME    = STARLINK-36148
OBJECT_ID      = 2025-293C
CENTER_NAME    = EARTH
REF_FRAME      = TEME
TIME_SYSTEM    = UTC
MEAN_ELEMENT_THEORY = SGP/SGP4

EPOCH          = 2025-12-28T04:00:01.998720
MEAN_MOTION    = 15.67169745
ECCENTRICITY   = .0003441
INCLINATION    = 69.9992
RA_OF_ASC_NODE = 279.3606
ARG_OF_PERICENTER = 268.2848
MEAN_ANOMALY   = 342.6400

EPHEMERIS_TYPE = 0
CLASSIFICATION_TYPE = U
NORAD_CAT_ID   = 67005
ELEMENT_SET_NO = 999
REV_AT_EPOCH   = 264
BSTAR          = -.16941E-1
MEAN_MOTION_DOT = -.1615847E-1
MEAN_MOTION_DDOT = 0

CCSDS_OMM_VERS = 2.0
CREATION_DATE  = 
ORIGINATOR     = 

OBJECT_NAME    = STARLINK-36156
OBJECT_ID      = 2025-293D
CENTER_NAME    = EARTH
REF_FRAME      = TEME
TIME_SYSTEM    = UTC
MEAN_ELEMENT_THEORY = SGP/SGP4

EPOCH          = 2025-12-28T04:00:01.998720
MEAN_MOTION    = 15.67120299
ECCENTRICITY   = .0003584
INCLINATION    = 69.9992
RA_OF_ASC_NODE = 279.3549
ARG_OF_PERICENTER = 269.2064
MEAN_ANOMALY   = 346.2877

EPHEMERIS_TYPE = 0
CLASSIFICATION_TYPE = U
NORAD_CAT_ID   = 67006
ELEMENT_SET_NO = 999
REV_AT_EPOCH   = 264
BSTAR          = -.16976E-1
MEAN_MOTION_DOT = -.1615965E-1
MEAN_MOTION_DDOT = 0

CCSDS_OMM_VERS = 2.0
CREATION_DATE  = 
ORIGINATOR     = 

OBJECT_NAME    = STARLINK-36123
OBJECT_ID      = 2025-293E
CENTER_NAME    = EARTH
REF_FRAME      = TEME
TIME_SYSTEM    = UTC
MEAN_ELEMENT_THEORY = SGP/SGP4

EPOCH          = 2025-12-28T04:00:01.998720
MEAN_MOTION    = 15.67140585
ECCENTRICITY   = .0003477
INCLINATION    = 69.9993
RA_OF_ASC_NODE = 279.3573
ARG_OF_PERICENTER = 267.8748
MEAN_ANOMALY   = 345.4372

EPHEMERIS_TYPE = 0
CLASSIFICATION_TYPE = U
NORAD_CAT_ID   = 67007
ELEMENT_SET_NO = 999
REV_AT_EPOCH   = 264
BSTAR          = -.17008E-1
MEAN_MOTION_DOT = -.1619807E-1
MEAN_MOTION_DDOT = 0

CCSDS_OMM_VERS = 2.0
CREATION_DATE  = 
ORIGINATOR     = 

OBJECT_NAME    = STARLINK-36163
OBJECT_ID      = 2025-293F
CENTER_NAME    = EARTH
REF_FRAME      = TEME
TIME_SYSTEM    = UTC
MEAN_ELEMENT_THEORY = SGP/SGP4

EPOCH          = 2025-12-28T04:00:01.998720
MEAN_MOTION    = 15.67077458
ECCENTRICITY   = .0003445
INCLINATION    = 69.9992
RA_OF_ASC_NODE = 279.3519
ARG_OF_PERICENTER = 268.2646
MEAN_ANOMALY   = 349.7195

EPHEMERIS_TYPE = 0
CLASSIFICATION_TYPE = U
NORAD_CAT_ID   = 67008
ELEMENT_SET_NO = 999
REV_AT_EPOCH   = 264
BSTAR          = -.16957E-1
MEAN_MOTION_DOT = -.1611754E-1
MEAN_MOTION_DDOT = 0

CCSDS_OMM_VERS = 2.0
CREATION_DATE  = 
ORIGINATOR     = 

OBJECT_NAME    = STARLINK-36118
OBJECT_ID      = 2025-293G
CENTER_NAME    = EARTH
REF_FRAME      = TEME
TIME_SYSTEM    = UTC
MEAN_ELEMENT_THEORY = SGP/SGP4

EPOCH          = 2025-12-28T04:00:01.998720
MEAN_MOTION    = 15.67061488
ECCENTRICITY   = .0003664
INCLINATION    = 69.9993
RA_OF_ASC_NODE = 279.3495
ARG_OF_PERICENTER = 268.7620
MEAN_ANOMALY   = 351.4765

EPHEMERIS_TYPE = 0
CLASSIFICATION_TYPE = U
NORAD_CAT_ID   = 67009
ELEMENT_SET_NO = 999
REV_AT_EPOCH   = 258
BSTAR          = -.17099E-1
MEAN_MOTION_DOT = -.1622971E-1
MEAN_MOTION_DDOT = 0

CCSDS_OMM_VERS = 2.0
CREATION_DATE  = 
ORIGINATOR     = 

OBJECT_NAME    = STARLINK-36189
OBJECT_ID      = 2025-293H
CENTER_NAME    = EARTH
REF_FRAME      = TEME
TIME_SYSTEM    = UTC
MEAN_ELEMENT_THEORY = SGP/SGP4

EPOCH          = 2025-12-28T04:00:01.998720
MEAN_MOTION    = 15.67028979
ECCENTRICITY   = .0003437
INCLINATION    = 69.9993
RA_OF_ASC_NODE = 279.3445
ARG_OF_PERICENTER = 266.5859
MEAN_ANOMALY   = 357.9324

EPHEMERIS_TYPE = 0
CLASSIFICATION_TYPE = U
NORAD_CAT_ID   = 67010
ELEMENT_SET_NO = 999
REV_AT_EPOCH   = 264
BSTAR          = -.17072E-1
MEAN_MOTION_DOT = -.1618628E-1
MEAN_MOTION_DDOT = 0

CCSDS_OMM_VERS = 2.0
CREATION_DATE  = 
ORIGINATOR     = 

OBJECT_NAME    = STARLINK-36167
OBJECT_ID      = 2025-293J
CENTER_NAME    = EARTH
REF_FRAME      = TEME
TIME_SYSTEM    = UTC
MEAN_ELEMENT_THEORY = SGP/SGP4

EPOCH          = 2025-12-28T04:00:01.998720
MEAN_MOTION    = 15.67049400
ECCENTRICITY   = .0003466
INCLINATION    = 69.9994
RA_OF_ASC_NODE = 279.3459
ARG_OF_PERICENTER = 267.3143
MEAN_ANOMALY   = 354.9348

EPHEMERIS_TYPE = 0
CLASSIFICATION_TYPE = U
NORAD_CAT_ID   = 67011
ELEMENT_SET_NO = 999
REV_AT_EPOCH   = 258
BSTAR          = -.16992E-1
MEAN_MOTION_DOT = -.1613128E-1
MEAN_MOTION_DDOT = 0

CCSDS_OMM_VERS = 2.0
CREATION_DATE  = 
ORIGINATOR     = 

OBJECT_NAME    = STARLINK-36175
OBJECT_ID      = 2025-293K
CENTER_NAME    = EARTH
REF_FRAME      = TEME
TIME_SYSTEM    = UTC
MEAN_ELEMENT_THEORY = SGP/SGP4

EPOCH          = 2025-12-28T04:00:01.998720
MEAN_MOTION    = 15.67017958
ECCENTRICITY   = .0003524
INCLINATION    = 69.9994
RA_OF_ASC_NODE = 279.3409
ARG_OF_PERICENTER = 267.8792
MEAN_ANOMALY   = 358.7086

EPHEMERIS_TYPE = 0
CLASSIFICATION_TYPE = U
NORAD_CAT_ID   = 67012
ELEMENT_SET_NO = 999
REV_AT_EPOCH   = 258
BSTAR          = -.17067E-1
MEAN_MOTION_DOT = -.1617583E-1
MEAN_MOTION_DDOT = 0

CCSDS_OMM_VERS = 2.0
CREATION_DATE  = 
ORIGINATOR     = 

OBJECT_NAME    = STARLINK-35856
OBJECT_ID      = 2025-293L
CENTER_NAME    = EARTH
REF_FRAME      = TEME
TIME_SYSTEM    = UTC
MEAN_ELEMENT_THEORY = SGP/SGP4

EPOCH          = 2025-12-28T04:00:01.998720
MEAN_MOTION    = 15.66994990
ECCENTRICITY   = .0003487
INCLINATION    = 69.9994
RA_OF_ASC_NODE = 279.3379
ARG_OF_PERICENTER = 268.5285
MEAN_ANOMALY   = 0.3152

EPHEMERIS_TYPE = 0
CLASSIFICATION_TYPE = U
NORAD_CAT_ID   = 67013
ELEMENT_SET_NO = 999
REV_AT_EPOCH   = 258
BSTAR          = -.17107E-1
MEAN_MOTION_DOT = -.1619589E-1
MEAN_MOTION_DDOT = 0

